     2              NAVIGATION DATA                         RINEX VERSION / TYPE
CCRINEXN V1.6.0 UX  CDDIS               29-AUG-17 17:31     PGM / RUN BY / DATE 
IGS BROADCAST EPHEMERIS FILE                                COMMENT             
    0.5588D-08  0.1490D-07 -0.5960D-07 -0.1192D-06          ION ALPHA           
    0.7782D+05  0.3277D+05 -0.6554D+05 -0.2621D+06          ION BETA            
   -0.372529029846D-08-0.710542735760D-14   233472     1964 DELTA-UTC: A0,A1,T,W
    18                                                      LEAP SECONDS        
                                                            END OF HEADER       
20 17  8 28  4  0  0.0 0.484716147184D-03 0.125055521494D-11 0.000000000000D+00
    0.600000000000D+02-0.346250000000D+02 0.543879785653D-08 0.271622641661D+01
   -0.196695327759D-05 0.448402960319D-02 0.675395131111D-05 0.515372931671D+04
    0.100800000000D+06 0.689178705216D-07 0.308130863468D+01-0.502914190292D-07
    0.927660146963D+00 0.232000000000D+03 0.164968005148D+01-0.844892333873D-08
   -0.517878726014D-10 0.100000000000D+01 0.196400000000D+04 0.000000000000D+00
    0.200000000000D+01 0.000000000000D+00-0.838190317154D-08 0.600000000000D+02
    0.000000000000D+00 0.000000000000D+00 0.000000000000D+00 0.000000000000D+00
21 17  8 28  4  0  0.0-0.483869574964D-03 0.295585778076D-11 0.000000000000D+00
    0.880000000000D+02 0.221875000000D+01 0.513378539679D-08-0.242882969531D+00
    0.180676579475D-06 0.239658110077D-01 0.694207847118D-05 0.515361427689D+04
    0.100800000000D+06-0.402331352234D-06 0.209258638364D+01 0.268220901489D-06
    0.940638805062D+00 0.241750000000D+03-0.164660890220D+01-0.879322303859D-08
    0.386801812802D-09 0.100000000000D+01 0.196400000000D+04 0.000000000000D+00
    0.200000000000D+01 0.000000000000D+00-0.977888703346D-08 0.880000000000D+02
    0.936300000000D+05 0.000000000000D+00 0.000000000000D+00 0.000000000000D+00
22 17  8 28  4  0  0.0-0.102628022432D-03-0.126192389871D-10 0.000000000000D+00
    0.320000000000D+02-0.289375000000D+02 0.552594446348D-08 0.304551240296D+01
   -0.174529850483D-05 0.732398696709D-02 0.685825943947D-05 0.515374140739D+04
    0.100800000000D+06 0.122934579849D-06 0.313218507069D+01-0.223517417908D-07
    0.924358640756D+00 0.228062500000D+03-0.168387695532D+01-0.840963600938D-08
   -0.582167106740D-10 0.100000000000D+01 0.196400000000D+04 0.000000000000D+00
    0.200000000000D+01 0.000000000000D+00-0.176951289177D-07 0.320000000000D+02
    0.937500000000D+05 0.400000000000D+01 0.000000000000D+00 0.000000000000D+00
23 17  8 28  4  0  0.0-0.216769054532D-03-0.341060513165D-12 0.000000000000D+00
    0.850000000000D+02 0.244062500000D+02 0.494984897514D-08 0.229651548446D+01
    0.122748315334D-05 0.118837750051D-01 0.106021761894D-04 0.515369546700D+04
    0.100800000000D+06-0.184401869774D-06-0.206527783292D+01-0.244006514549D-06
    0.944010114405D+00 0.167968750000D+03-0.242564679518D+01-0.805426392248D-08
   -0.189293598157D-10 0.100000000000D+01 0.196400000000D+04 0.000000000000D+00
    0.200000000000D+01 0.000000000000D+00-0.204890966415D-07 0.850000000000D+02
    0.936000000000D+05 0.000000000000D+00 0.000000000000D+00 0.000000000000D+00
24 17  8 28  4  0  0.0-0.392319634557D-04-0.341060513165D-12 0.000000000000D+00
    0.970000000000D+02 0.533437500000D+02 0.515485742980D-08 0.176364353643D+01
    0.286474823952D-05 0.584315217566D-02 0.595301389694D-05 0.515368165207D+04
    0.100800000000D+06-0.135973095894D-06-0.104244592793D+01 0.178813934326D-06
    0.944157152301D+00 0.255718750000D+03 0.468817123178D+00-0.848392467390D-08
    0.260725139395D-10 0.100000000000D+01 0.196400000000D+04 0.000000000000D+00
    0.200000000000D+01 0.000000000000D+00 0.279396772385D-08 0.970000000000D+02
    0.936300000000D+05 0.000000000000D+00 0.000000000000D+00 0.000000000000D+00
25 17  8 28  4  0  0.0-0.446434132755D-03-0.636646291241D-11 0.000000000000D+00
    0.510000000000D+02-0.245000000000D+02 0.432589430943D-08-0.189757433027D+00
   -0.127218663693D-05 0.655896228273D-02 0.566244125366D-05 0.515376550674D+04
    0.100800000000D+06-0.372529029846D-07 0.423222185703D-01 0.763684511185D-07
    0.976793403435D+00 0.276031250000D+03 0.830397738565D+00-0.817426926147D-08
   -0.332513849788D-09 0.100000000000D+01 0.196400000000D+04 0.000000000000D+00
    0.200000000000D+01 0.000000000000D+00 0.558793544769D-08 0.510000000000D+02
    0.936300000000D+05 0.000000000000D+00 0.000000000000D+00 0.000000000000D+00
26 17  8 28  4  0  0.0-0.441387761384D-03 0.966338120634D-11 0.000000000000D+00
    0.710000000000D+02-0.271250000000D+02 0.465447946851D-08-0.792353129031D+00
   -0.140815973282D-05 0.184938649181D-02 0.573322176933D-05 0.515375734901D+04
    0.100800000000D+06 0.149011611938D-07 0.252767403748D-01-0.204890966415D-07
    0.958497809075D+00 0.270687500000D+03 0.238446298874D-01-0.829070234687D-08
   -0.317513237924D-09 0.100000000000D+01 0.196400000000D+04 0.000000000000D+00
    0.200000000000D+01 0.000000000000D+00 0.745058059692D-08 0.710000000000D+02
    0.988500000000D+05 0.000000000000D+00 0.000000000000D+00 0.000000000000D+00
27 17  8 28  4  0  0.0 0.316842924804D-03 0.545696821064D-11 0.000000000000D+00
    0.690000000000D+02-0.275625000000D+02 0.390087677289D-08-0.259590383450D+01
   -0.138580799103D-05 0.490824680310D-02 0.934489071369D-05 0.515367503929D+04
    0.100800000000D+06-0.745058059692D-08 0.108163281316D+01-0.558793544769D-08
    0.975469462573D+00 0.205968750000D+03 0.398987634019D+00-0.777639534665D-08
    0.796461747257D-10 0.100000000000D+01 0.196400000000D+04 0.000000000000D+00
    0.200000000000D+01 0.000000000000D+00 0.139698386192D-08 0.690000000000D+02
    0.936000000000D+05 0.400000000000D+01 0.000000000000D+00 0.000000000000D+00
28 17  8 28  4  0  0.0 0.640997197479D-03 0.329691829393D-11 0.000000000000D+00
    0.400000000000D+02-0.239062500000D+02 0.396016495677D-08-0.170591231249D+01
   -0.106915831566D-05 0.197658266406D-01 0.574626028538D-05 0.515365448570D+04
    0.100800000000D+06 0.210478901863D-06 0.122052392041D+00 0.501051545143D-06
    0.988230769081D+00 0.283187500000D+03-0.156589932410D+01-0.782854037584D-08
   -0.361443627006D-09 0.100000000000D+01 0.196400000000D+04 0.000000000000D+00
    0.200000000000D+01 0.000000000000D+00-0.111758708954D-07 0.400000000000D+02
    0.936000000000D+05 0.400000000000D+01 0.000000000000D+00 0.000000000000D+00
29 17  8 28  4  0  0.0 0.569709576666D-03-0.432009983342D-11 0.000000000000D+00
    0.800000000000D+02-0.155937500000D+02 0.389980536752D-08-0.131042829267D+01
   -0.901520252228D-06 0.557075254619D-03 0.894628465176D-05 0.515357988358D+04
    0.100800000000D+06 0.484287738800D-07 0.114439399711D+01-0.558793544769D-08
    0.981736574366D+00 0.219906250000D+03 0.860078649408D+00-0.777818076614D-08
    0.214294641060D-10 0.100000000000D+01 0.196400000000D+04 0.000000000000D+00
    0.200000000000D+01 0.000000000000D+00-0.102445483208D-07 0.800000000000D+02
    0.936300000000D+05 0.000000000000D+00 0.000000000000D+00 0.000000000000D+00
30 17  8 28  4  0  0.0 0.143602490425D-03-0.193267624127D-11 0.000000000000D+00
    0.112000000000D+03 0.569375000000D+02 0.508342603081D-08 0.824267131657D+00
    0.296905636787D-05 0.304078124464D-02 0.556558370590D-05 0.515363761330D+04
    0.100800000000D+06-0.111758708954D-07-0.949805312232D+00-0.689178705216D-07
    0.946862046868D+00 0.260093750000D+03-0.307294893561D+01-0.847070998193D-08
   -0.396445084958D-10 0.100000000000D+01 0.196400000000D+04 0.000000000000D+00
    0.200000000000D+01 0.000000000000D+00 0.372529029846D-08 0.112000000000D+03
    0.936000000000D+05 0.400000000000D+01 0.000000000000D+00 0.000000000000D+00
31 17  8 28  4  0  0.0 0.179036986083D-03-0.250111042988D-11 0.000000000000D+00
    0.910000000000D+02 0.552812500000D+02 0.465912242120D-08 0.649738077502D+00
    0.281631946564D-05 0.848884426523D-02 0.545568764210D-05 0.515376767731D+04
    0.100800000000D+06 0.186264514923D-06-0.976046924615D+00-0.130385160446D-07
    0.965870702609D+00 0.273781250000D+03-0.246604698956D+00-0.827534485381D-08
   -0.221437798653D-10 0.100000000000D+01 0.196400000000D+04 0.000000000000D+00
    0.200000000000D+01 0.000000000000D+00-0.135041773319D-07 0.910000000000D+02
    0.936300000000D+05 0.000000000000D+00 0.000000000000D+00 0.000000000000D+00
32 17  8 28  4  0  0.0-0.490631442517D-03-0.636646291241D-11 0.000000000000D+00
    0.700000000000D+02 0.320000000000D+02 0.464626515040D-08-0.202008361211D+01
    0.166520476341D-05 0.141854502726D-02 0.965967774391D-05 0.515375756073D+04
    0.100800000000D+06 0.875443220139D-07-0.206256922254D+01 0.931322574616D-08
    0.957617008044D+00 0.191500000000D+03-0.253014197882D+01-0.801747646051D-08
   -0.250010407342D-11 0.100000000000D+01 0.196400000000D+04 0.000000000000D+00
    0.200000000000D+01 0.000000000000D+00 0.931322574616D-09 0.700000000000D+02
    0.936300000000D+05 0.000000000000D+00 0.000000000000D+00 0.000000000000D+00
 7 17  8 28  5 59 44.0 0.310072675347D-03-0.477484718431D-11 0.000000000000D+00
    0.900000000000D+01 0.673125000000D+02 0.483198681067D-08 0.190405852009D+01
    0.347755849361D-05 0.110115536954D-01 0.647455453873D-05 0.515372561836D+04
    0.107984000000D+06-0.264495611191D-06-0.987449702489D+00 0.577419996262D-07
    0.961139202757D+00 0.258093750000D+03-0.256626431985D+01-0.830963209353D-08
    0.101789951468D-09 0.100000000000D+01 0.196400000000D+04 0.000000000000D+00
    0.200000000000D+01 0.000000000000D+00-0.111758708954D-07 0.900000000000D+01
    0.107280000000D+06 0.000000000000D+00 0.000000000000D+00 0.000000000000D+00
